26081,GLOBALSTAR M063,2000,121.4,-1.0,-,51.99,Inactive,0,LEO,USA,Globalstar,Unknown,Unknown,Unknown,1 26081U 00008A   24213.54546426 -.00000037  00000+0  67086-3 0  9993,2 26081  51.9919 236.0202 0004413  59.4000 108.5762 11.86159085119529,11.86159085,0.0004413,LEO
26082,GLOBALSTAR M062,2000,115.81,-1.0,-,51.99,Inactive,0,LEO,USA,Globalstar,Unknown,Unknown,Unknown,1 26082U 00008B   24213.54581002 -.00000071  00000+0  19587-3 0  9994,2 26082  51.9866 318.6767 0007637 146.2140 227.3846 12.43441206119239,12.43441206,0.0007637,LEO
26083,GLOBALSTAR M060,2000,118.26,-1.0,-,52.0,Inactive,0,LEO,USA,Globalstar,Unknown,Unknown,Unknown,1 26083U 00008C   24213.53665170 -.00000069  00000+0  21928-3 0  9992,2 26083  51.9990 233.3471 0003527 194.6688 332.4695 12.17638287113301,12.17638287,0.0003527,LEO
26084,GLOBALSTAR M064,2000,121.16,-1.0,-,52.01,Inactive,0,LEO,USA,Globalstar,Unknown,Unknown,Unknown,1 26084U 00008D   24213.55451993 -.00000093  00000+0 -13378-3 0  9999,2 26084  52.0058 338.6044 0002027 144.3606 215.7362 11.88520408129088,11.88520408,0.0002027,LEO
31571,GLOBALSTAR M065,2007,114.11,450.0,P,51.99,Active,1,LEO,Kazakhstan,Globalstar,Commercial,Communications,Soyuz,1 31571U 07020A   24213.48442765 -.00000095  00000+0  48483-4 0  9993,2 31571  51.9892 122.3588 0009982 320.3032 211.7011 12.61975052792912,12.61975052,0.0009982,LEO
31573,GLOBALSTAR M069,2007,114.08,450.0,+,52.0,Active,1,LEO,Kazakhstan,Globalstar,Commercial,Communications,Soyuz,1 31573U 07020C   24213.59595109 -.00000057  00000+0  26296-3 0  9993,2 31573  51.9954  77.7883 0000993  62.4008 330.2618 12.62244802794065,12.62244802,9.93e-05,LEO
31574,GLOBALSTAR M072,2007,114.08,450.0,+,52.01,Active,1,LEO,Kazakhstan,Globalstar,Commercial,Communications,Soyuz,1 31574U 07020D   24213.62265155 -.00000074  00000+0  16830-3 0  9995,2 31574  52.0066 173.6870 0000614 340.4627 191.0628 12.62260860792334,12.6226086,6.14e-05,LEO
31576,GLOBALSTAR M071,2007,114.08,450.0,+,52.01,Active,1,LEO,Kazakhstan,Globalstar,Commercial,Communications,Soyuz,1 31576U 07020F   24213.41551473 -.00000067  00000+0  20716-3 0  9995,2 31576  52.0068  83.5402 0001251  81.4197  89.2849 12.62271328455228,12.62271328,0.0001251,LEO
